[{"OBJECT_NAME":"SHIYAN-1 (SY-1)","OBJECT_ID":"2004-012A","EPOCH":"2026-03-09T17:40:34.066560","MEAN_MOTION":15.31043463,"ECCENTRICITY":0.00058726,"INCLINATION":97.8764,"RA_OF_ASC_NODE":140.5238,"ARG_OF_PERICENTER":23.6952,"MEAN_ANOMALY":336.4557,"EPHEMERIS_TYPE":0,"CLASSIFICATION_TYPE":"U","NORAD_CAT_ID":28220,"ELEMENT_SET_NO":999,"REV_AT_EPOCH":19586,"BSTAR":0.00054854449,"MEAN_MOTION_DOT":0.00016393,"MEAN_MOTION_DDOT":0},{"OBJECT_NAME":"STARLINK-33847","OBJECT_ID":"2025-085X","EPOCH":"2026-03-09T21:53:36.218400","MEAN_MOTION":15.27589031,"ECCENTRICITY":9.377e-5,"INCLINATION":43.0015,"RA_OF_ASC_NODE":29.6836,"ARG_OF_PERICENTER":250.3536,"MEAN_ANOMALY":109.7215,"EPHEMERIS_TYPE":0,"CLASSIFICATION_TYPE":"U","NORAD_CAT_ID":63685,"ELEMENT_SET_NO":999,"REV_AT_EPOCH":4890,"BSTAR":0.001107487,"MEAN_MOTION_DOT":0.00030347,"MEAN_MOTION_DDOT":0}]
